NORAD_CAT_ID,OBJECT_NAME,OBJECT_TYPE,EPOCH,MEAN_MOTION,ECCENTRICITY,INCLINATION,RA_OF_ASC_NODE,ARG_OF_PERICENTER,MEAN_ANOMALY,BSTAR,MEAN_MOTION_DOT,MEAN_MOTION_DDOT,TLE_LINE0,TLE_LINE1,TLE_LINE2,SEMIMAJOR_AXIS,PERIOD,APOGEE,PERIGEE,DECAYED
53577.0,STARLINK-4553,PAYLOAD,2024-02-07 13:23:15,15.08835329,0.0001309,53.2158,230.722,99.3799,260.7341,1.3781e-05,-6.9e-07,0.0,0 STARLINK-4553,1 53577U 22101BC  24038.55781441 -.00000069  00000-0  13781-4 0  9995,2 53577  53.2158 230.7220 0001309  99.3799 260.7341 15.08835329 82364,6917.895,95.438,540.665,538.854,0.0
53577.0,STARLINK-4553,PAYLOAD,2024-02-07 21:20:10,15.08840263,0.0001336,53.2159,229.2366,96.3038,263.8107,6.0911e-05,6.82e-06,0.0,0 STARLINK-4553,1 53577U 22101BC  24038.88901101  .00000682  00000-0  60911-4 0  9995,2 53577  53.2159 229.2366 0001336  96.3038 263.8107 15.08840263 82415,6917.88,95.438,540.669,538.82,0.0
53577.0,STARLINK-4553,PAYLOAD,2024-02-08 02:06:19,15.08841465,0.000131,53.2156,228.3444,93.1311,266.9831,6.59e-05,7.61e-06,0.0,0 STARLINK-4553,1 53577U 22101BC  24039.08773039  .00000761  00000-0  65900-4 0  9996,2 53577  53.2156 228.3444 0001310  93.1311 266.9831 15.08841465 81625,6917.876,95.437,540.647,538.835,0.0
53577.0,STARLINK-4553,PAYLOAD,2024-02-08 11:38:39,15.08832708,0.0001254,53.2157,226.56,87.0379,273.0756,-4.6925e-05,-1.034e-05,0.0,0 STARLINK-4553,1 53577U 22101BC  24039.48518243 -.00001034  00000-0 -46925-4 0  9996,2 53577  53.2157 226.5600 0001254  87.0379 273.0756 15.08832708 81684,6917.903,95.438,540.635,538.9,0.0
53577.0,STARLINK-4553,PAYLOAD,2024-02-08 13:14:02,15.08833877,0.0001226,53.2158,226.2627,87.7676,272.3456,-3.7572e-05,-8.86e-06,0.0,0 STARLINK-4553,1 53577U 22101BC  24039.55142153 -.00000886  00000-0 -37572-4 0  9999,2 53577  53.2158 226.2627 0001226  87.7676 272.3456 15.08833877 82517,6917.899,95.438,540.612,538.916,0.0
53577.0,STARLINK-4553,PAYLOAD,2024-02-08 22:46:21,15.08839813,0.0001255,53.216,224.4786,87.0448,273.0687,1.7289e-05,-1.3e-07,0.0,0 STARLINK-4553,1 53577U 22101BC  24039.94885717 -.00000013  00000-0  17289-4 0  9996,2 53577  53.2160 224.4786 0001255  87.0448 273.0687 15.08839813 82574,6917.881,95.438,540.614,538.878,0.0
53577.0,STARLINK-4553,PAYLOAD,2024-02-09 11:29:26,15.08835998,0.0001282,53.2159,222.0996,88.6509,271.463,0.00012404,1.687e-05,0.0,0 STARLINK-4553,1 53577U 22101BC  24040.47877887  .00001687  00000-0  12404-3 0  9995,2 53577  53.2159 222.0996 0001282  88.6509 271.4630 15.08835998 82653,6917.893,95.438,540.644,538.871,0.0
53577.0,STARLINK-4553,PAYLOAD,2024-02-10 11:20:13,15.08844025,0.0001336,53.2152,217.6391,85.3254,274.7891,0.00013673,1.889e-05,0.0,0 STARLINK-4553,1 53577U 22101BC  24041.47237616  .00001889  00000-0  13673-3 0  9999,2 53577  53.2152 217.6391 0001336  85.3254 274.7891 15.08844025 81987,6917.868,95.437,540.657,538.809,0.0
53577.0,STARLINK-4553,PAYLOAD,2024-02-10 20:52:31,15.08850244,0.0001326,53.2153,215.855,84.6528,275.4615,0.00029875,4.471e-05,0.0,0 STARLINK-4553,1 53577U 22101BC  24041.86981464  .00004471  00000-0  29875-3 0  9990,2 53577  53.2153 215.8550 0001326  84.6528 275.4615 15.08850244 82860,6917.849,95.437,540.631,538.797,0.0
53577.0,STARLINK-4553,PAYLOAD,2024-02-11 17:32:32,15.08845158,0.0001451,53.2157,211.9892,80.4799,279.6357,0.00010567,1.394e-05,0.0,0 STARLINK-4553,1 53577U 22101BC  24042.73093548  .00001394  00000-0  10567-3 0  9993,2 53577  53.2157 211.9892 0001451  80.4799 279.6357 15.08845158 82174,6917.865,95.437,540.733,538.726,0.0
53577.0,STARLINK-4553,PAYLOAD,2024-02-12 14:12:33,15.08842515,0.0001387,53.2158,208.1222,86.048,274.0671,5.6853e-05,6.17e-06,0.0,0 STARLINK-4553,1 53577U 22101BC  24043.59205638  .00000617  00000-0  56853-4 0  9999,2 53577  53.2158 208.1222 0001387  86.0480 274.0671 15.08842515 83125,6917.873,95.437,540.697,538.778,0.0
53577.0,STARLINK-4553,PAYLOAD,2024-02-12 15:47:56,15.08842011,0.0001353,53.2159,207.8247,89.7662,270.3485,4.4737e-05,4.24e-06,0.0,0 STARLINK-4553,1 53577U 22101BC  24043.65829618  .00000424  00000-0  44737-4 0  9990,2 53577  53.2159 207.8247 0001353  89.7662 270.3485 15.08842011 82317,6917.874,95.437,540.675,538.803,0.0
53577.0,STARLINK-4553,PAYLOAD,2024-02-12 20:34:05,15.08845432,0.0001332,53.2166,206.9323,90.975,269.1395,3.9762e-05,3.45e-06,0.0,0 STARLINK-4553,1 53577U 22101BC  24043.85701346  .00000345  00000-0  39762-4 0  9993,2 53577  53.2166 206.9323 0001332  90.9750 269.1395 15.08845432 83169,6917.864,95.437,540.65,538.807,0.0
53577.0,STARLINK-4553,PAYLOAD,2024-02-13 10:52:34,15.08833718,0.0001493,53.217,204.2512,102.4282,257.6877,2.6668e-05,1.36e-06,0.0,0 STARLINK-4553,1 53577U 22101BC  24044.45318245  .00000136  00000-0  26668-4 0  9991,2 53577  53.2170 204.2512 0001493 102.4282 257.6877 15.08833718 82432,6917.9,95.438,540.797,538.732,0.0
53577.0,STARLINK-4553,PAYLOAD,2024-02-13 14:03:21,15.08824783,0.0001944,53.2165,203.6579,131.1533,228.9627,0.00022929,3.361e-05,0.0,0 STARLINK-4553,1 53577U 22101BC  24044.58566038  .00003361  00000-0  22929-3 0  9998,2 53577  53.2165 203.6579 0001944 131.1533 228.9627 15.08824783 83270,6917.927,95.439,541.137,538.447,0.0
53577.0,STARLINK-4553,PAYLOAD,2024-02-13 20:24:53,15.0884072,0.0001462,53.2168,202.4696,99.3295,260.7862,1.6032e-06,-2.62e-06,0.0,0 STARLINK-4553,1 53577U 22101BC  24044.85061999 -.00000262  00000-0  16032-5 0  9992,2 53577  53.2168 202.4696 0001462  99.3295 260.7862 15.08840720 83314,6917.878,95.438,540.755,538.732,0.0
53577.0,STARLINK-4553,PAYLOAD,2024-02-14 10:43:21,15.08844058,0.0001847,53.2164,199.7949,125.8213,234.2951,8.7e-05,1.097e-05,0.0,0 STARLINK-4553,1 53577U 22101BC  24045.44677483  .00001097  00000-0  87000-4 0  9997,2 53577  53.2164 199.7949 0001847 125.8213 234.2951 15.08844058 82582,6917.868,95.437,541.011,538.455,0.0
53577.0,STARLINK-4553,PAYLOAD,2024-02-14 13:54:07,15.08847867,0.0001245,53.2163,199.2006,99.2379,260.8754,0.00010289,1.35e-05,0.0,0 STARLINK-4553,1 53577U 22101BC  24045.57925307  .00001350  00000-0  10289-3 0  9998,2 53577  53.2163 199.2006 0001245  99.2379 260.8754 15.08847867 83420,6917.856,95.437,540.583,538.86,0.0
53577.0,STARLINK-4553,PAYLOAD,2024-02-14 17:04:52,15.08858373,0.0001145,53.2168,198.6093,93.6317,266.4806,0.00016628,2.361e-05,0.0,0 STARLINK-4553,1 53577U 22101BC  24045.71172438  .00002361  00000-0  16628-3 0  9999,2 53577  53.2168 198.6093 0001145  93.6317 266.4806 15.08858373 82628,6917.824,95.436,540.481,538.897,0.0
53577.0,STARLINK-4553,PAYLOAD,2024-02-15 02:37:12,15.08848263,0.0001241,53.2164,196.8201,104.8968,255.2162,0.00017982,2.576e-05,0.0,0 STARLINK-4553,1 53577U 22101BC  24046.10916739  .00002576  00000-0  17982-3 0  9995,2 53577  53.2164 196.8201 0001241 104.8968 255.2162 15.08848263 82683,6917.855,95.437,540.579,538.862,0.0
53577.0,STARLINK-4553,PAYLOAD,2024-02-15 10:34:09,15.08836112,0.0002052,53.2169,195.3357,81.4089,278.7135,5.4633e-05,5.81e-06,0.0,0 STARLINK-4553,1 53577U 22101BC  24046.44038379  .00000581  00000-0  54633-4 0  9996,2 53577  53.2169 195.3357 0002052  81.4089 278.7135 15.08836112 82735,6917.892,95.438,541.177,538.338,0.0
53577.0,STARLINK-4553,PAYLOAD,2024-02-15 13:44:55,15.0882882,0.0001468,53.2174,194.7413,87.3769,272.7391,-5.7769e-06,-3.8e-06,0.0,0 STARLINK-4553,1 53577U 22101BC  24046.57286977 -.00000380  00000-0 -57769-5 0  9992,2 53577  53.2174 194.7413 0001468  87.3769 272.7391 15.08828820 83575,6917.915,95.438,540.795,538.764,0.0
53577.0,STARLINK-4553,PAYLOAD,2024-02-15 16:55:41,15.08834103,0.0001497,53.2171,194.1491,89.1103,271.0061,5.4503e-05,5.79e-06,0.0,0 STARLINK-4553,1 53577U 22101BC  24046.70534636  .00000579  00000-0  54503-4 0  9995,2 53577  53.2171 194.1491 0001497  89.1103 271.0061 15.08834103 83595,6917.898,95.438,540.799,538.728,0.0
53577.0,STARLINK-4553,PAYLOAD,2024-02-16 13:35:41,15.08844556,0.0001655,53.2174,190.2849,96.3753,263.7427,-4.1271e-05,-9.45e-06,0.0,0 STARLINK-4553,1 53577U 22101BC  24047.56645755 -.00000945  00000-0 -41271-4 0  9992,2 53577  53.2174 190.2849 0001655  96.3753 263.7427 15.08844556 83721,6917.866,95.437,540.876,538.587,0.0
53577.0,STARLINK-4553,PAYLOAD,2024-02-16 18:21:51,15.0885133,0.0001663,53.2173,189.3928,98.7188,261.3993,8.6925e-05,1.096e-05,0.0,0 STARLINK-4553,1 53577U 22101BC  24047.76517402  .00001096  00000-0  86925-4 0  9992,2 53577  53.2173 189.3928 0001663  98.7188 261.3993 15.08851330 82936,6917.846,95.437,540.861,538.56,0.0
53577.0,STARLINK-4553,PAYLOAD,2024-02-17 08:40:20,15.08834716,0.0001745,53.2179,186.7173,85.226,274.8932,0.00018462,2.651e-05,0.0,0 STARLINK-4553,1 53577U 22101BC  24048.36134581  .00002651  00000-0  18462-3 0  9990,2 53577  53.2179 186.7173 0001745  85.2260 274.8932 15.08834716 83020,6917.897,95.438,540.969,538.554,0.0
53577.0,STARLINK-4553,PAYLOAD,2024-02-17 13:26:29,15.08834336,0.0001405,53.2176,185.8251,89.6401,270.4752,9.6407e-05,1.246e-05,0.0,0 STARLINK-4553,1 53577U 22101BC  24048.56006517  .00001246  00000-0  96407-4 0  9994,2 53577  53.2176 185.8251 0001405  89.6401 270.4752 15.08834336 83875,6917.898,95.438,540.735,538.791,0.0
53577.0,STARLINK-4553,PAYLOAD,2024-02-17 16:37:15,15.08841485,0.0001604,53.2165,185.2282,79.3621,280.7552,0.00021396,3.119e-05,0.0,0 STARLINK-4553,1 53577U 22101BC  24048.69254395  .00003119  00000-0  21396-3 0  9992,2 53577  53.2165 185.2282 0001604  79.3621 280.7552 15.08841485 83899,6917.876,95.437,540.85,538.631,0.0
53577.0,STARLINK-4553,PAYLOAD,2024-02-18 14:52:39,15.08837126,0.0001015,53.2155,181.0637,85.9114,274.1994,7.9087e-05,9.71e-06,0.0,0 STARLINK-4553,1 53577U 22101BC  24049.61990373  .00000971  00000-0  79087-4 0  9992,2 53577  53.2155 181.0637 0001015  85.9114 274.1994 15.08837126 84033,6917.889,95.438,540.456,539.052,0.0
53577.0,STARLINK-4553,PAYLOAD,2024-02-18 16:28:02,15.08844665,0.0001324,53.2153,180.7676,82.3201,277.7941,0.00028376,4.232e-05,0.0,0 STARLINK-4553,1 53577U 22101BC  24049.68614259  .00004232  00000-0  28376-3 0  9993,2 53577  53.2153 180.7676 0001324  82.3201 277.7941 15.08844665 83228,6917.866,95.437,540.647,538.815,0.0
